LEGION 1                
1 59625U 24081A   26197.25457683  .00001818  00000+0  95782-4 0  9999
2 59625  97.5011 274.8033 0007726 265.2677  94.7674 15.16847422121940
LEGION 2                
1 59626U 24081B   26197.21900892  .00001820  00000+0  95906-4 0  9992
2 59626  97.5011 274.8649 0010287 229.6219 130.4117 15.16826330121941
LEGION 3                
1 60452U 24146A   26197.19336918  .00001326  00000+0  82208-4 0  9994
2 60452  45.0018 235.0382 0008111 339.4365  20.6186 15.15658436106424
LEGION 4                
1 60453U 24146B   26197.32491250  .00001567  00000+0  94551-4 0  9992
2 60453  45.0028 326.2004 0008986 120.8010 239.3754 15.15685678105291
LEGION 5                
1 62900U 25025A   26197.25904434  .00000855  00000+0  57771-4 0  9995
2 62900  45.0016 145.5130 0008112 296.6847  63.3201 15.15700635 78900
LEGION 6                
1 62901U 25025B   26197.06045729  .00001645  00000+0  98571-4 0  9999
2 62901  45.0015  55.7242 0010793 280.9679  78.9985 15.15690707 80017
